[
    {
        "Altitude(m)": 705677.1972215567,
        "Argument of Periapsis(deg)": 0.0,
        "Eccentricity": 0.0,
        "Inclination(deg)": 45.0,
        "Latitude(deg)": -11.613329524942678,
        "Longitude(deg)": -33.17443880599537,
        "Mean Anomaly(deg)": -163.6364,
        "RAAN(deg)": 235.0,
        "Satellite Name": "Constellation 1 1046",
        "Satellite Number": 1046,
        "Semi-Major Axis(m)": 7083131.272910544,
        "Time(s)": 0
    },
    {
        "Altitude(m)": 705687.8616842928,
        "Argument of Periapsis(deg)": 5.994800624540561e-05,
        "Eccentricity": 0.0,
        "Inclination(deg)": 45.0,
        "Latitude(deg)": -11.655589711823689,
        "Longitude(deg)": -33.13390942900259,
        "Mean Anomaly(deg)": -163.57569885975013,
        "RAAN(deg)": 234.99994341083442,
        "Satellite Name": "Constellation 1 1046",
        "Satellite Number": 1046,
        "Semi-Major Axis(m)": 7083131.272910544,
        "Time(s)": 1
    },
    {
        "Altitude(m)": 705698.5417170619,
        "Argument of Periapsis(deg)": 0.00011989601249081122,
        "Eccentricity": 0.0,
        "Inclination(deg)": 45.0,
        "Latitude(deg)": -11.69784275823423,
        "Longitude(deg)": -33.093366660208666,
        "Mean Anomaly(deg)": -163.5149977195002,
        "RAAN(deg)": 234.99988682166887,
        "Satellite Name": "Constellation 1 1046",
        "Satellite Number": 1046,
        "Semi-Major Axis(m)": 7083131.272910544,
        "Time(s)": 2
    },
    {
        "Altitude(m)": 705709.237289727,
        "Argument of Periapsis(deg)": 0.00017984401873621686,
        "Eccentricity": 0.0,
        "Inclination(deg)": 45.0,
        "Latitude(deg)": -11.740088635881818,
        "Longitude(deg)": -33.05281044762854,
        "Mean Anomaly(deg)": -163.45429657925035,
        "RAAN(deg)": 234.99983023250326,
        "Satellite Name": "Constellation 1 1046",
        "Satellite Number": 1046,
        "Semi-Major Axis(m)": 7083131.272910544,
        "Time(s)": 3
    },
    {
        "Altitude(m)": 705719.948372082,
        "Argument of Periapsis(deg)": 0.00023979202498162244,
        "Eccentricity": 0.0,
        "Inclination(deg)": 45.0,
        "Latitude(deg)": -11.782327316448512,
        "Longitude(deg)": -33.01224073925106,
        "Mean Anomaly(deg)": -163.39359543900042,
        "RAAN(deg)": 234.9997736433377,
        "Satellite Name": "Constellation 1 1046",
        "Satellite Number": 1046,
        "Semi-Major Axis(m)": 7083131.272910544,
        "Time(s)": 4
    },
    {
        "Altitude(m)": 705730.6749338339,
        "Argument of Periapsis(deg)": 0.00029974003122702807,
        "Eccentricity": 0.0,
        "Inclination(deg)": 45.0,
        "Latitude(deg)": -11.824558771590484,
        "Longitude(deg)": -32.97165748303969,
        "Mean Anomaly(deg)": -163.33289429875055,
        "RAAN(deg)": 234.99971705417215,
        "Satellite Name": "Constellation 1 1046",
        "Satellite Number": 1046,
        "Semi-Major Axis(m)": 7083131.272910544,
        "Time(s)": 5
    },
    {
        "Altitude(m)": 705741.4169446197,
        "Argument of Periapsis(deg)": 0.00035968803747243373,
        "Eccentricity": 0.0,
        "Inclination(deg)": 45.0,
        "Latitude(deg)": -11.866782972938287,
        "Longitude(deg)": -32.93106062693176,
        "Mean Anomaly(deg)": -163.27219315850058,
        "RAAN(deg)": 234.99966046500657,
        "Satellite Name": "Constellation 1 1046",
        "Satellite Number": 1046,
        "Semi-Major Axis(m)": 7083131.272910544,
        "Time(s)": 6
    },
    {
        "Altitude(m)": 705752.1743740031,
        "Argument of Periapsis(deg)": 0.00041963604371783933,
        "Eccentricity": 0.0,
        "Inclination(deg)": 45.0,
        "Latitude(deg)": -11.908999892096459,
        "Longitude(deg)": -32.890450286936016,
        "Mean Anomaly(deg)": -163.21149201825077,
        "RAAN(deg)": 234.99960387584102,
        "Satellite Name": "Constellation 1 1046",
        "Satellite Number": 1046,
        "Semi-Major Axis(m)": 7083131.272910544,
        "Time(s)": 7
    },
    {
        "Altitude(m)": 705762.9471914686,
        "Argument of Periapsis(deg)": 0.0004795840499632449,
        "Eccentricity": 0.0,
        "Inclination(deg)": 45.0,
        "Latitude(deg)": -11.951209500643225,
        "Longitude(deg)": -32.84982607474377,
        "Mean Anomaly(deg)": -163.1507908780008,
        "RAAN(deg)": 234.9995472866754,
        "Satellite Name": "Constellation 1 1046",
        "Satellite Number": 1046,
        "Semi-Major Axis(m)": 7083131.272910544,
        "Time(s)": 8
    },
    {
        "Altitude(m)": 705773.7353664296,
        "Argument of Periapsis(deg)": 0.0005395320562086505,
        "Eccentricity": 0.0,
        "Inclination(deg)": 45.0,
        "Latitude(deg)": -11.993411770131102,
        "Longitude(deg)": -32.80918810631152,
        "Mean Anomaly(deg)": -163.0900897377509,
        "RAAN(deg)": 234.99949069750986,
        "Satellite Name": "Constellation 1 1046",
        "Satellite Number": 1046,
        "Semi-Major Axis(m)": 7083131.272910544,
        "Time(s)": 9
    },
    {
        "Altitude(m)": 705784.5388682234,
        "Argument of Periapsis(deg)": 0.0005994800624540561,
        "Eccentricity": 0.0,
        "Inclination(deg)": 45.0,
        "Latitude(deg)": -12.035606672086134,
        "Longitude(deg)": -32.768536329472845,
        "Mean Anomaly(deg)": -163.02938859750105,
        "RAAN(deg)": 234.99943410834427,
        "Satellite Name": "Constellation 1 1046",
        "Satellite Number": 1046,
        "Semi-Major Axis(m)": 7083131.272910544,
        "Time(s)": 10
    },
    {
        "Altitude(m)": 705795.3576661096,
        "Argument of Periapsis(deg)": 0.0006594280686994618,
        "Eccentricity": 0.0,
        "Inclination(deg)": 45.0,
        "Latitude(deg)": -12.077794178008226,
        "Longitude(deg)": -32.72787069203466,
        "Mean Anomaly(deg)": -162.96868745725112,
        "RAAN(deg)": 234.99937751917872,
        "Satellite Name": "Constellation 1 1046",
        "Satellite Number": 1046,
        "Semi-Major Axis(m)": 7083131.272910544,
        "Time(s)": 11
    },
    {
        "Altitude(m)": 705806.1917292762,
        "Argument of Periapsis(deg)": 0.0007193760749448675,
        "Eccentricity": 0.0,
        "Inclination(deg)": 45.0,
        "Latitude(deg)": -12.11997425937065,
        "Longitude(deg)": -32.68719114177817,
        "Mean Anomaly(deg)": -162.90798631700127,
        "RAAN(deg)": 234.99932093001317,
        "Satellite Name": "Constellation 1 1046",
        "Satellite Number": 1046,
        "Semi-Major Axis(m)": 7083131.272910544,
        "Time(s)": 12
    },
    {
        "Altitude(m)": 705817.0410268346,
        "Argument of Periapsis(deg)": 0.000779324081190273,
        "Eccentricity": 0.0,
        "Inclination(deg)": 45.0,
        "Latitude(deg)": -12.162146887620267,
        "Longitude(deg)": -32.64649762645789,
        "Mean Anomaly(deg)": -162.8472851767513,
        "RAAN(deg)": 234.99926434084762,
        "Satellite Name": "Constellation 1 1046",
        "Satellite Number": 1046,
        "Semi-Major Axis(m)": 7083131.272910544,
        "Time(s)": 13
    },
    {
        "Altitude(m)": 705827.905527826,
        "Argument of Periapsis(deg)": 0.0008392720874356787,
        "Eccentricity": 0.0,
        "Inclination(deg)": 45.0,
        "Latitude(deg)": -12.204312034177189,
        "Longitude(deg)": -32.60579009380223,
        "Mean Anomaly(deg)": -162.7865840365014,
        "RAAN(deg)": 234.999207751682,
        "Satellite Name": "Constellation 1 1046",
        "Satellite Number": 1046,
        "Semi-Major Axis(m)": 7083131.272910544,
        "Time(s)": 14
    },
    {
        "Altitude(m)": 705838.7852012131,
        "Argument of Periapsis(deg)": 0.0008992200936810842,
        "Eccentricity": 0.0,
        "Inclination(deg)": 45.0,
        "Latitude(deg)": -12.246469670435031,
        "Longitude(deg)": -32.56506865960993,
        "Mean Anomaly(deg)": -162.72588289625156,
        "RAAN(deg)": 234.99915116251643,
        "Satellite Name": "Constellation 1 1046",
        "Satellite Number": 1046,
        "Semi-Major Axis(m)": 7083131.272910544,
        "Time(s)": 15
    },
    {
        "Altitude(m)": 705849.6800158824,
        "Argument of Periapsis(deg)": 0.0009591680999264898,
        "Eccentricity": 0.0,
        "Inclination(deg)": 45.0,
        "Latitude(deg)": -12.288619767759917,
        "Longitude(deg)": -32.52433293536227,
        "Mean Anomaly(deg)": -162.6651817560016,
        "RAAN(deg)": 234.99909457335087,
        "Satellite Name": "Constellation 1 1046",
        "Satellite Number": 1046,
        "Semi-Major Axis(m)": 7083131.272910544,
        "Time(s)": 16
    },
    {
        "Altitude(m)": 705860.589940657,
        "Argument of Periapsis(deg)": 0.0010191161061718953,
        "Eccentricity": 0.0,
        "Inclination(deg)": 45.0,
        "Latitude(deg)": -12.330762297491617,
        "Longitude(deg)": -32.48358303680516,
        "Mean Anomaly(deg)": -162.60448061575175,
        "RAAN(deg)": 234.99903798418532,
        "Satellite Name": "Constellation 1 1046",
        "Satellite Number": 1046,
        "Semi-Major Axis(m)": 7083131.272910544,
        "Time(s)": 17
    },
    {
        "Altitude(m)": 705871.5149442686,
        "Argument of Periapsis(deg)": 0.001079064112417301,
        "Eccentricity": 0.0,
        "Inclination(deg)": 45.0,
        "Latitude(deg)": -12.372897230942682,
        "Longitude(deg)": -32.44281891156073,
        "Mean Anomaly(deg)": -162.54377947550182,
        "RAAN(deg)": 234.99898139501977,
        "Satellite Name": "Constellation 1 1046",
        "Satellite Number": 1046,
        "Semi-Major Axis(m)": 7083131.272910544,
        "Time(s)": 18
    }
]